SCD 1                   
1 22490U 93009B   26178.23279476  .00000390  00000+0  55544-4 0  9990
2 22490  24.9682 145.5483 0041648 244.1491 138.4681 14.46122241762573
TECHSAT 1B (GO-32)      
1 25397U 98043D   26178.24961874  .00000060  00000+0  46181-4 0  9994
2 25397  99.0071 171.2622 0001555 144.1868 215.9414 14.24430252452760
SCD 2                   
1 25504U 98060A   26178.26442800  .00000376  00000+0  53985-4 0  9998
2 25504  24.9967  10.0130 0016585 229.2368 291.7403 14.45529386461786
DLR-TUBSAT              
1 25757U 99029B   26178.28250771  .00000097  00000+0  35665-4 0  9995
2 25757  98.6698 174.1189 0013471 323.5241  36.5035 14.52429187434715
TERRA                   
1 25994U 99068A   26178.21812455  .00000377  00000+0  85739-4 0  9995
2 25994  97.9451 227.3665 0002375 160.9536 243.0874 14.61110552411071
MAROC-TUBSAT            
1 27004U 01056D   26178.31013980 -.00000017  00000+0  33278-4 0  9999
2 27004  99.8086 355.3606 0020557 116.1490   7.9525 13.70262873227574
AQUA                    
1 27424U 02022A   26178.26017222  .00000791  00000+0  16699-3 0  9991
2 27424  98.4281 147.7445 0000767  67.0515  44.6782 14.62172598284740
SHIYAN-1 (SY-1)         
1 28220U 04012A   26178.22996734  .00015268  00000+0  46605-3 0  9992
2 28220  97.8697 256.9518 0004725 356.1950   3.9255 15.34010851212631
AURA                    
1 28376U 04026A   26178.25676160  .00000777  00000+0  16694-3 0  9994
2 28376  98.3421 134.7936 0001171  83.5750 276.5584 14.61343518167687
IRS-P5 (CARTOSAT-1)     
1 28649U 05017A   26178.07739391  .00001512  00000+0  15801-3 0  9991
2 28649  97.5306 200.6933 0002305  67.7089 292.4375 14.91073788145292
SINAH 1                 
1 28893U 05043D   26178.30503003  .00000331  00000+0  72339-4 0  9994
2 28893  98.2871 312.6871 0013299 242.0834 117.9021 14.64164160102009
RESURS-DK 1             
1 29228U 06021A   26178.08293926  .00002392  00000+0  14026-3 0  9996
2 29228  69.9337 313.9373 0006751 287.1987  72.8440 15.13256263104073
ARIRANG-2 (KOMPSAT-2)   
1 29268U 06031A   26178.28823066  .00000144  00000+0  35465-4 0  9991
2 29268  97.8309   2.2463 0015578  45.5386 127.3754 14.64665260 62950
LAPAN-TUBSAT            
1 29709U 07001A   26178.28769331  .00000930  00000+0  11301-3 0  9998
2 29709  98.1341 177.7392 0012798 147.1683 213.0330 14.85960515 52652
HAIYANG-1B              
1 31113U 07010A   26178.21330992  .00000097  00000+0  52536-4 0  9990
2 31113  98.3499 159.6698 0013690 166.3579 193.7977 14.31029303  2071
COSMO-SKYMED 1          
1 31598U 07023A   26178.29409929  .00002922  00000+0  25810-3 0  9999
2 31598  97.8860  10.2352 0001775  88.5235 271.6190 14.97153641 31304
TERRASAR-X              
1 31698U 07026A   26177.61088571  .00000881  00000+0  45155-4 0  9991
2 31698  97.4450 185.1818 0001614  89.1456 270.9963 15.19154138 54659
WORLDVIEW-1 (WV-1)      
1 32060U 07041A   26178.27015619  .00006526  00000+0  26931-3 0  9990
2 32060  97.3883 297.8695 0001294 341.7858  18.3333 15.24374063 44418
YAOGAN-3                
1 32289U 07055A   26178.32951891  .00002091  00000+0  21812-3 0  9991
2 32289  97.8155 208.1074 0001794  81.1682 278.9739 14.90819520  7382
COSMO-SKYMED 2          
1 32376U 07059A   26178.28762104  .00000482  00000+0  67089-4 0  9993
2 32376  97.8887   1.7391 0001342  88.3731 271.7636 14.82153321  3501
RADARSAT-2              
1 32382U 07061A   26178.32352777  .00000305  00000+0  13519-3 0  9991
2 32382  98.5778 185.1112 0001310  85.2200 274.9132 14.29984717967401
CARTOSAT-2A             
1 32783U 08021A   26178.26066870  .00000679  00000+0  98014-4 0  9990
2 32783  97.7633 226.6255 0013357  79.7701 280.5017 14.79253242980298
HUANJING 1A (HJ-1A)     
1 33320U 08041A   26178.28039382  .00001465  00000+0  18149-3 0  9994
2 33320  97.6682 163.7286 0020560 103.7299 256.6206 14.84010028959905
HUANJING 1B (HJ-1B)     
1 33321U 08041B   26178.25407175  .00001421  00000+0  17773-3 0  9995
2 33321  97.6517 166.8444 0036964 148.0787 212.2678 14.83334107959909
GEOEYE 1                
1 33331U 08042A   26178.26228789  .00000454  00000+0  94423-4 0  9993
2 33331  98.1335 252.0674 0005230  40.5245 319.6346 14.64634805951626
THEOS                   
1 33396U 08049A   26178.25540385 -.00000120  00000+0 -36489-4 0  9999
2 33396  98.5572 235.2122 0001191  82.2415 277.8897 14.20134182919398
COSMO-SKYMED 3          
1 33412U 08054A   26178.23588661  .00002913  00000+0  19855-3 0  9998
2 33412  97.8269  36.9736 0014486 229.6187 130.3776 15.07004757958452
YAOGAN-4                
1 33446U 08061A   26178.28647248  .00001034  00000+0  13294-3 0  9999
2 33446  97.9307 111.7221 0015303  42.4453 317.7941 14.83219124947160
GOSAT (IBUKI)           
1 33492U 09002A   26178.29749783 -.00000066  00000+0 -32042-5 0  9994
2 33492  98.0902 289.2525 0001302  83.2041 276.9311 14.67538294932943
DEIMOS-1                
1 35681U 09041A   26178.29256434  .00000751  00000+0  11803-3 0  9994
2 35681  97.7409 335.0825 0002234 117.7661 242.3776 14.75248047908377
